$$SOE
2460728.500000000, A.D. 2025-Feb-22 00:00:00.0000, -3.492929932156600E+08, -3.435118063290961E+08, -2.160111285368161E+07,
2460735.500000000, A.D. 2025-Mar-01 00:00:00.0000, -3.427343133357549E+08, -3.502018763300155E+08, -2.321231985823989E+07,
2460742.500000000, A.D. 2025-Mar-08 00:00:00.0000, -3.360346866046882E+08, -3.567480006543880E+08, -2.481398140938336E+07,
2460749.500000000, A.D. 2025-Mar-15 00:00:00.0000, -3.291969992277381E+08, -3.631476289149893E+08, -2.640544913367152E+07,
2460756.500000000, A.D. 2025-Mar-22 00:00:00.0000, -3.222241750931641E+08, -3.693982577113252E+08, -2.798607869852574E+07,
2460763.500000000, A.D. 2025-Mar-29 00:00:00.0000, -3.151191762172973E+08, -3.754974324903401E+08, -2.955522991797091E+07,
2460770.500000000, A.D. 2025-Apr-05 00:00:00.0000, -3.078850015184857E+08, -3.814427485414555E+08, -3.111226694160828E+07,
2460777.500000000, A.D. 2025-Apr-12 00:00:00.0000, -3.005246858456912E+08, -3.872318510219527E+08, -3.265655834217605E+07,
2460784.500000000, A.D. 2025-Apr-19 00:00:00.0000, -2.930412994480259E+08, -3.928624348932862E+08, -3.418747715694651E+07,
2460791.500000000, A.D. 2025-Apr-26 00:00:00.0000, -2.854379476120437E+08, -3.983322449704284E+08, -3.570440092478353E+07,
2460798.500000000, A.D. 2025-May-03 00:00:00.0000, -2.777177703511285E+08, -4.036390760643803E+08, -3.720671172795996E+07,
2460805.500000000, A.D. 2025-May-10 00:00:00.0000, -2.698839421162164E+08, -4.087807732090940E+08, -3.869379624086455E+07,
2460812.500000000, A.D. 2025-May-17 00:00:00.0000, -2.619396714891167E+08, -4.137552320145150E+08, -4.016504579258227E+07,
2460819.500000000, A.D. 2025-May-24 00:00:00.0000, -2.538882006830425E+08, -4.185603992015331E+08, -4.161985646409667E+07,
2460826.500000000, A.D. 2025-May-31 00:00:00.0000, -2.457328044317710E+08, -4.231942730093248E+08, -4.305762923339754E+07,
2460833.500000000, A.D. 2025-Jun-07 00:00:00.0000, -2.374767886678559E+08, -4.276549022712445E+08, -4.447777003354621E+07,
2460840.500000000, A.D. 2025-Jun-14 00:00:00.0000, -2.291234913534624E+08, -4.319403848263751E+08, -4.587968956148449E+07,
2460847.500000000, A.D. 2025-Jun-21 00:00:00.0000, -2.206762842456505E+08, -4.360488685387867E+08, -4.726280321676958E+07,
2460854.500000000, A.D. 2025-Jun-28 00:00:00.0000, -2.121385724671750E+08, -4.399785531613709E+08, -4.862653131330201E+07,
2460861.500000000, A.D. 2025-Jul-05 00:00:00.0000, -2.035137933992086E+08, -4.437276908887201E+08, -4.997029924895042E+07,
2460868.500000000, A.D. 2025-Jul-12 00:00:00.0000, -1.948054160862762E+08, -4.472945864044169E+08, -5.129353758974898E+07,
2460875.500000000, A.D. 2025-Jul-19 00:00:00.0000, -1.860169409626655E+08, -4.506775969975482E+08, -5.259568213309535E+07,
2460882.500000000, A.D. 2025-Jul-26 00:00:00.0000, -1.771518996888794E+08, -4.538751328048697E+08, -5.387617397387403E+07,
2460889.500000000, A.D. 2025-Aug-02 00:00:00.0000, -1.682138550311286E+08, -4.568856571571882E+08, -5.513445957782146E+07,
2460896.500000000, A.D. 2025-Aug-09 00:00:00.0000, -1.592064007590067E+08, -4.597076870450948E+08, -5.636999086558375E+07,
2460903.500000000, A.D. 2025-Aug-16 00:00:00.0000, -1.501331614832099E+08, -4.623397937677717E+08, -5.758222531975830E+07,
2460910.500000000, A.D. 2025-Aug-23 00:00:00.0000, -1.409977921395602E+08, -4.647806037487174E+08, -5.877062614040416E+07,
2460917.500000000, A.D. 2025-Aug-30 00:00:00.0000, -1.318039767892690E+08, -4.670287988045259E+08, -5.993466242076182E+07,
2460924.500000000, A.D. 2025-Sep-06 00:00:00.0000, -1.225554281523018E+08, -4.690831148661802E+08, -6.107380913118568E+07,
2460931.500000000, A.D. 2025-Sep-13 00:00:00.0000, -1.132558895427526E+08, -4.709423416351100E+08, -6.218754696072888E+07,
2460938.500000000, A.D. 2025-Sep-20 00:00:00.0000, -1.039091359308378E+08, -4.726053248186979E+08, -6.327536245096350E+07,
2460945.500000000, A.D. 2025-Sep-27 00:00:00.0000, -9.451897307147323E+07, -4.740709678348272E+08, -6.433674826499331E+07,
2460952.500000000, A.D. 2025-Oct-04 00:00:00.0000, -8.508923671502098E+07, -4.753382324468396E+08, -6.537120336269286E+07,
2460959.500000000, A.D. 2025-Oct-11 00:00:00.0000, -7.562379227257150E+07, -4.764061392718424E+08, -6.637823312499014E+07,
2460966.500000000, A.D. 2025-Oct-18 00:00:00.0000, -6.612653465058658E+07, -4.772737684364078E+08, -6.735734947569171E+07,
2460973.500000000, A.D. 2025-Oct-25 00:00:00.0000, -5.660138811360581E+07, -4.779402603681351E+08, -6.830807101287809E+07,
2460980.500000000, A.D. 2025-Nov-01 00:00:00.0000, -4.705230613355191E+07, -4.784048167071950E+08, -6.922992315248400E+07,
2460987.500000000, A.D. 2025-Nov-08 00:00:00.0000, -3.748327118902156E+07, -4.786667013692508E+08, -7.012243829022393E+07,
2460994.500000000, A.D. 2025-Nov-15 00:00:00.0000, -2.789829436484951E+07, -4.787252418185886E+08, -7.098515600073752E+07,
2461001.500000000, A.D. 2025-Nov-22 00:00:00.0000, -1.830141434764699E+07, -4.785798303316537E+08, -7.181762329343998E+07,
2461008.500000000, A.D. 2025-Nov-29 00:00:00.0000, -8.696695969082132E+06, -4.782299241160849E+08, -7.261939481875530E+07,
2461015.500000000, A.D. 2025-Dec-06 00:00:00.0000, 9.117694271076161E+05, -4.776750444206262E+08, -7.339003282728490E+07,
2461022.500000000, A.D. 2025-Dec-13 00:00:00.0000, 1.051986222997984E+07, -4.769147780051069E+08, -7.412910719735399E+07,
2461029.500000000, A.D. 2025-Dec-20 00:00:00.0000, 2.012343491343487E+07, -4.759487799470200E+08, -7.483619576807854E+07,
2461036.500000000, A.D. 2025-Dec-27 00:00:00.0000, 2.971831342311169E+07, -4.747767751932415E+08, -7.551088466794059E+07,
2461043.500000000, A.D. 2026-Jan-03 00:00:00.0000, 3.930029814021701E+07, -4.733985594709733E+08, -7.615276855519062E+07,
2461050.500000000, A.D. 2026-Jan-10 00:00:00.0000, 4.886516453401676E+07, -4.718140002343153E+08, -7.676145083523861E+07,
2461057.500000000, A.D. 2026-Jan-17 00:00:00.0000, 5.840866373837504E+07, -4.700230377354633E+08, -7.733654388353485E+07,
2461064.500000000, A.D. 2026-Jan-24 00:00:00.0000, 6.792652313368464E+07, -4.680256861959255E+08, -7.787766927920508E+07,
2461071.500000000, A.D. 2026-Jan-31 00:00:00.0000, 7.741444696111797E+07, -4.658220350841393E+08, -7.838445805251181E+07,
2461078.500000000, A.D. 2026-Feb-07 00:00:00.0000, 8.686811703378710E+07, -4.634122505565695E+08, -7.885655095698071E+07,
2461085.500000000, A.D. 2026-Feb-14 00:00:00.0000, 9.628319380026864E+07, -4.607965770775853E+08, -7.929359879114139E+07,
2461092.500000000, A.D. 2026-Feb-21 00:00:00.0000, 1.056553181498652E+08, -4.579753386407876E+08, -7.969526275854218E+07,
2461099.500000000, A.D. 2026-Feb-28 00:00:00.0000, 1.149801128762350E+08, -4.549489384372262E+08, -8.006121467224500E+07,
2461106.500000000, A.D. 2026-Mar-07 00:00:00.0000, 1.242531817424539E+08, -4.517178589181139E+08, -8.039113697399601E+07,
2461113.500000000, A.D. 2026-Mar-14 00:00:00.0000, 1.334701089258226E+08, -4.482826645818983E+08, -8.068472301291528E+07,
2461120.500000000, A.D. 2026-Mar-21 00:00:00.0000, 1.426264606286190E+08, -4.446440045861060E+08, -8.094167751033089E+07,
2461127.500000000, A.D. 2026-Mar-28 00:00:00.0000, 1.517177868483489E+08, -4.408026141543211E+08, -8.116171694239044E+07,
2461134.500000000, A.D. 2026-Apr-04 00:00:00.0000, 1.607396227064303E+08, -4.367593157425196E+08, -8.134456986384177E+07,
2461141.500000000, A.D. 2026-Apr-11 00:00:00.0000, 1.696874896118906E+08, -4.325150203229430E+08, -8.148997722728530E+07,
2461148.500000000, A.D. 2026-Apr-18 00:00:00.0000, 1.785568964220679E+08, -4.280707287902319E+08, -8.159769271275941E+07,
2461155.500000000, A.D. 2026-Apr-25 00:00:00.0000, 1.873433406488985E+08, -4.234275334727669E+08, -8.166748307028475E+07,
2461162.500000000, A.D. 2026-May-02 00:00:00.0000, 1.960423097444792E+08, -4.185866197760243E+08, -8.169912848018277E+07,
2461169.500000000, A.D. 2026-May-09 00:00:00.0000, 2.046492825940257E+08, -4.135492680212495E+08, -8.169242294767594E+07,
2461176.500000000, A.D. 2026-May-16 00:00:00.0000, 2.131597315980267E+08, -4.083168553386984E+08, -8.164717475500348E+07,
2461183.500000000, A.D. 2026-May-23 00:00:00.0000, 2.215691253989257E+08, -4.028908565912559E+08, -8.156320689225899E+07,
2461190.500000000, A.D. 2026-May-30 00:00:00.0000, 2.298729301764328E+08, -3.972728440066503E+08, -8.144035725007452E+07,
2461197.500000000, A.D. 2026-Jun-06 00:00:00.0000, 2.380666091961228E+08, -3.914644887879059E+08, -8.127847881215145E+07,
2461204.500000000, A.D. 2026-Jun-13 00:00:00.0000, 2.461456242800766E+08, -3.854675644984680E+08, -8.107744016729288E+07,
2461211.500000000, A.D. 2026-Jun-20 00:00:00.0000, 2.541054387020020E+08, -3.792839492923882E+08, -8.083712605591638E+07,
2461218.500000000, A.D. 2026-Jun-27 00:00:00.0000, 2.619415198114644E+08, -3.729156273262720E+08, -8.055743782315952E+07,
2461225.500000000, A.D. 2026-Jul-04 00:00:00.0000, 2.696493413896695E+08, -3.663646901241970E+08, -8.023829384188978E+07,
2461232.500000000, A.D. 2026-Jul-11 00:00:00.0000, 2.772243859930781E+08, -3.596333380234461E+08, -7.987962993958874E+07,
2461239.500000000, A.D. 2026-Jul-18 00:00:00.0000, 2.846621473796523E+08, -3.527238816709868E+08, -7.948139983529794E+07,
2461246.500000000, A.D. 2026-Jul-25 00:00:00.0000, 2.919581330438119E+08, -3.456387435631828E+08, -7.904357558822601E+07,
2461253.500000000, A.D. 2026-Aug-01 00:00:00.0000, 2.991078669095110E+08, -3.383804596712373E+08, -7.856614806569071E+07,
2461260.500000000, A.D. 2026-Aug-08 00:00:00.0000, 3.061068923979733E+08, -3.309516811818540E+08, -7.804912745224713E+07,
2461267.500000000, A.D. 2026-Aug-15 00:00:00.0000, 3.129507762876562E+08, -3.233551758965853E+08, -7.749254380063188E+07,
2461274.500000000, A.D. 2026-Aug-22 00:00:00.0000, 3.196351126080351E+08, -3.155938280636522E+08, -7.689644745448661E+07,
2461281.500000000, A.D. 2026-Aug-29 00:00:00.0000, 3.261555242790638E+08, -3.076706380100808E+08, -7.626090924441642E+07,
2461288.500000000, A.D. 2026-Sep-05 00:00:00.0000, 3.325076646291556E+08, -2.995887244353328E+08, -7.558602088622713E+07,
$$EOE